{
    "links": {
        "self": "http://www.neowsapp.com/rest/v1/neo/3596042?api_key=iIulBulltgU6a56xZRHN4H3l9WmuAYTsLGpBGhQ2"
    },
    "id": "3596042",
    "neo_reference_id": "3596042",
    "name": "(2012 BJ14)",
    "designation": "2012 BJ14",
    "nasa_jpl_url": "http://ssd.jpl.nasa.gov/sbdb.cgi?sstr=3596042",
    "absolute_magnitude_h": 24.6,
    "estimated_diameter": {
        "kilometers": {
            "estimated_diameter_min": 0.0319561887,
            "estimated_diameter_max": 0.0714562102
        },
        "meters": {
            "estimated_diameter_min": 31.9561886721,
            "estimated_diameter_max": 71.4562101727
        },
        "miles": {
            "estimated_diameter_min": 0.0198566489,
            "estimated_diameter_max": 0.0444008168
        },
        "feet": {
            "estimated_diameter_min": 104.8431420431,
            "estimated_diameter_max": 234.436392583
        }
    },
    "is_potentially_hazardous_asteroid": false,
    "close_approach_data": [
        {
            "close_approach_date": "1911-01-16",
            "close_approach_date_full": "1911-Jan-16 21:10",
            "epoch_date_close_approach": -1860547800000,
            "relative_velocity": {
                "kilometers_per_second": "23.1928314966",
                "kilometers_per_hour": "83494.1933877517",
                "miles_per_hour": "51880.0447747394"
            },
            "miss_distance": {
                "astronomical": "0.0228580141",
                "lunar": "8.8917674849",
                "kilometers": "3419510.221789967",
                "miles": "2124785.1242248646"
            },
            "orbiting_body": "Earth"
        },
        {
            "close_approach_date": "2012-01-15",
            "close_approach_date_full": "2012-Jan-15 03:56",
            "epoch_date_close_approach": 1326599760000,
            "relative_velocity": {
                "kilometers_per_second": "21.2914350498",
                "kilometers_per_hour": "76649.1661791896",
                "miles_per_hour": "47626.8110628415"
            },
            "miss_distance": {
                "astronomical": "0.0577464504",
                "lunar": "22.4633692056",
                "kilometers": "8638745.979900648",
                "miles": "5367867.8405710224"
            },
            "orbiting_body": "Earth"
        },
        {
            "close_approach_date": "2082-10-11",
            "close_approach_date_full": "2082-Oct-11 14:19",
            "epoch_date_close_approach": 3558953940000,
            "relative_velocity": {
                "kilometers_per_second": "24.4577672204",
                "kilometers_per_hour": "88047.961993368",
                "miles_per_hour": "54709.579495268"
            },
            "miss_distance": {
                "astronomical": "0.4802611178",
                "lunar": "186.8215748242",
                "kilometers": "71846040.266699086",
                "miles": "44643059.2955599468"
            },
            "orbiting_body": "Earth"
        }
    ],
    "orbital_data": {
        "orbit_id": "7",
        "orbit_determination_date": "2017-04-06 08:51:18",
        "first_observation_date": "2012-01-20",
        "last_observation_date": "2012-01-27",
        "data_arc_in_days": 7,
        "observations_used": 30,
        "orbit_uncertainty": "9",
        "minimum_orbit_intersection": ".000862567",
        "jupiter_tisserand_invariant": "3.363",
        "epoch_osculation": "2455949.5",
        "eccentricity": ".7419550923285589",
        "semi_major_axis": "2.061193039904024",
        "inclination": "6.398547505135575",
        "ascending_node_longitude": "297.8908144817178",
        "orbital_period": "1080.877378877557",
        "perihelion_distance": ".5318803676750509",
        "perihelion_argument": "85.05246504995407",
        "aphelion_distance": "3.590505712132998",
        "perihelion_time": "2455896.368406548407",
        "mean_anomaly": "17.69615500921705",
        "mean_motion": ".3330627571962362",
        "equinox": "J2000",
        "orbit_class": {
            "orbit_class_type": "APO",
            "orbit_class_description": "Near-Earth asteroid orbits which cross the Earth’s orbit similar to that of 1862 Apollo",
            "orbit_class_range": "a (semi-major axis) > 1.0 AU; q (perihelion) < 1.017 AU"
        }
    },
    "is_sentry_object": false
}